STARLINK-36467          
1 67348U 26003Q   26027.91668981 -.02027774  00000+0 -18232-1 0  9991
2 67348  42.9999 100.3413 0001417 274.7195  84.4719 15.70475140  4126
STARLINK-36457          
1 67349U 26003R   26027.91668981 -.02034002  00000+0 -18295-1 0  9993
2 67349  42.9998 100.3312 0001379 273.7127  89.3160 15.70476718  4121
STARLINK-36475          
1 67350U 26003S   26027.91668981 -.02029127  00000+0 -18247-1 0  9994
2 67350  42.9999 100.3258 0001360 274.5136  90.4304 15.70474969  4110
STARLINK-36478          
1 67351U 26003T   26027.91668981 -.02031121  00000+0 -18266-1 0  9993
2 67351  42.9998 100.3214 0001423 277.6337  89.2287 15.70475334  4112
STARLINK-36479          
1 67352U 26003U   26027.91668981 -.02030767  00000+0 -18261-1 0  9994
2 67352  42.9999 100.3164 0001493 276.1058  92.6707 15.70477144  4126
STARLINK-36474          
1 67353U 26003V   26027.91668981 -.02000979  00000+0 -17990-1 0  9995
2 67353  42.9998 100.3118 0001150 273.4917  97.2411 15.70436843  4123
STARLINK-36448          
1 67354U 26003W   26027.91668981 -.02031548  00000+0 -18271-1 0  9995
2 67354  42.9997 100.2970 0001385 273.1803 103.2688 15.70474914  4124
STARLINK-36477          
1 67355U 26003X   26027.91668981 -.02044876  00000+0 -18400-1 0  9998
2 67355  42.9998 100.3069 0001393 270.0542 102.5577 15.70484290  4117
STARLINK-36429          
1 67356U 26003Y   26027.91668981 -.02038422  00000+0 -18339-1 0  9990
2 67356  42.9997 100.3020 0001271 276.1081  98.4209 15.70480071  4112
STARLINK-36456          
1 67357U 26003Z   26027.91668981 -.02043058  00000+0 -18383-1 0  9991
2 67357  42.9997 100.2916 0001433 274.1774 104.1876 15.70482333  4122
STARLINK-36466          
1 67358U 26003AA  26027.91668981 -.02028644  00000+0 -18242-1 0  9990
2 67358  42.9999 100.2870 0001357 277.7861 102.4954 15.70473926  4121
STARLINK-36499          
1 67359U 26003AB  26027.91668981 -.02039803  00000+0 -18350-1 0  9990
2 67359  42.9998 100.2820 0001506 275.8562 106.3421 15.70480941  4126
