CCSDS_OMM_VERS = 2.0
CREATION_DATE  = 
ORIGINATOR     = 

OBJECT_NAME    = STARLINK-36467
OBJECT_ID      = 2026-003Q
CENTER_NAME    = EARTH
REF_FRAME      = TEME
TIME_SYSTEM    = UTC
MEAN_ELEMENT_THEORY = SGP/SGP4

EPOCH          = 2026-01-27T22:00:01.999584
MEAN_MOTION    = 15.70475140
ECCENTRICITY   = .00014177
INCLINATION    = 42.9999
RA_OF_ASC_NODE = 100.3413
ARG_OF_PERICENTER = 274.7195
MEAN_ANOMALY   = 84.4719

EPHEMERIS_TYPE = 0
CLASSIFICATION_TYPE = U
NORAD_CAT_ID   = 67348
ELEMENT_SET_NO = 999
REV_AT_EPOCH   = 412
BSTAR          = -.18232125E-1
MEAN_MOTION_DOT = -.2027774E-1
MEAN_MOTION_DDOT = 0

CCSDS_OMM_VERS = 2.0
CREATION_DATE  = 
ORIGINATOR     = 

OBJECT_NAME    = STARLINK-36457
OBJECT_ID      = 2026-003R
CENTER_NAME    = EARTH
REF_FRAME      = TEME
TIME_SYSTEM    = UTC
MEAN_ELEMENT_THEORY = SGP/SGP4

EPOCH          = 2026-01-27T22:00:01.999584
MEAN_MOTION    = 15.70476718
ECCENTRICITY   = .00013794
INCLINATION    = 42.9998
RA_OF_ASC_NODE = 100.3312
ARG_OF_PERICENTER = 273.7127
MEAN_ANOMALY   = 89.3160

EPHEMERIS_TYPE = 0
CLASSIFICATION_TYPE = U
NORAD_CAT_ID   = 67349
ELEMENT_SET_NO = 999
REV_AT_EPOCH   = 412
BSTAR          = -.18295E-1
MEAN_MOTION_DOT = -.2034002E-1
MEAN_MOTION_DDOT = 0

CCSDS_OMM_VERS = 2.0
CREATION_DATE  = 
ORIGINATOR     = 

OBJECT_NAME    = STARLINK-36475
OBJECT_ID      = 2026-003S
CENTER_NAME    = EARTH
REF_FRAME      = TEME
TIME_SYSTEM    = UTC
MEAN_ELEMENT_THEORY = SGP/SGP4

EPOCH          = 2026-01-27T22:00:01.999584
MEAN_MOTION    = 15.70474969
ECCENTRICITY   = .00013607
INCLINATION    = 42.9999
RA_OF_ASC_NODE = 100.3258
ARG_OF_PERICENTER = 274.5136
MEAN_ANOMALY   = 90.4304

EPHEMERIS_TYPE = 0
CLASSIFICATION_TYPE = U
NORAD_CAT_ID   = 67350
ELEMENT_SET_NO = 999
REV_AT_EPOCH   = 411
BSTAR          = -.18246592E-1
MEAN_MOTION_DOT = -.2029127E-1
MEAN_MOTION_DDOT = 0

CCSDS_OMM_VERS = 2.0
CREATION_DATE  = 
ORIGINATOR     = 

OBJECT_NAME    = STARLINK-36478
OBJECT_ID      = 2026-003T
CENTER_NAME    = EARTH
REF_FRAME      = TEME
TIME_SYSTEM    = UTC
MEAN_ELEMENT_THEORY = SGP/SGP4

EPOCH          = 2026-01-27T22:00:01.999584
MEAN_MOTION    = 15.70475334
ECCENTRICITY   = .00014233
INCLINATION    = 42.9998
RA_OF_ASC_NODE = 100.3214
ARG_OF_PERICENTER = 277.6337
MEAN_ANOMALY   = 89.2287

EPHEMERIS_TYPE = 0
CLASSIFICATION_TYPE = U
NORAD_CAT_ID   = 67351
ELEMENT_SET_NO = 999
REV_AT_EPOCH   = 411
BSTAR          = -.18266188E-1
MEAN_MOTION_DOT = -.2031121E-1
MEAN_MOTION_DDOT = 0

CCSDS_OMM_VERS = 2.0
CREATION_DATE  = 
ORIGINATOR     = 

OBJECT_NAME    = STARLINK-36479
OBJECT_ID      = 2026-003U
CENTER_NAME    = EARTH
REF_FRAME      = TEME
TIME_SYSTEM    = UTC
MEAN_ELEMENT_THEORY = SGP/SGP4

EPOCH          = 2026-01-27T22:00:01.999584
MEAN_MOTION    = 15.70477144
ECCENTRICITY   = .0001493
INCLINATION    = 42.9999
RA_OF_ASC_NODE = 100.3164
ARG_OF_PERICENTER = 276.1058
MEAN_ANOMALY   = 92.6707

EPHEMERIS_TYPE = 0
CLASSIFICATION_TYPE = U
NORAD_CAT_ID   = 67352
ELEMENT_SET_NO = 999
REV_AT_EPOCH   = 412
BSTAR          = -.18260553E-1
MEAN_MOTION_DOT = -.2030767E-1
MEAN_MOTION_DDOT = 0

CCSDS_OMM_VERS = 2.0
CREATION_DATE  = 
ORIGINATOR     = 

OBJECT_NAME    = STARLINK-36474
OBJECT_ID      = 2026-003V
CENTER_NAME    = EARTH
REF_FRAME      = TEME
TIME_SYSTEM    = UTC
MEAN_ELEMENT_THEORY = SGP/SGP4

EPOCH          = 2026-01-27T22:00:01.999584
MEAN_MOTION    = 15.70436843
ECCENTRICITY   = .000115
INCLINATION    = 42.9998
RA_OF_ASC_NODE = 100.3118
ARG_OF_PERICENTER = 273.4917
MEAN_ANOMALY   = 97.2411

EPHEMERIS_TYPE = 0
CLASSIFICATION_TYPE = U
NORAD_CAT_ID   = 67353
ELEMENT_SET_NO = 999
REV_AT_EPOCH   = 412
BSTAR          = -.17989759E-1
MEAN_MOTION_DOT = -.2000979E-1
MEAN_MOTION_DDOT = 0

CCSDS_OMM_VERS = 2.0
CREATION_DATE  = 
ORIGINATOR     = 

OBJECT_NAME    = STARLINK-36448
OBJECT_ID      = 2026-003W
CENTER_NAME    = EARTH
REF_FRAME      = TEME
TIME_SYSTEM    = UTC
MEAN_ELEMENT_THEORY = SGP/SGP4

EPOCH          = 2026-01-27T22:00:01.999584
MEAN_MOTION    = 15.70474914
ECCENTRICITY   = .00013859
INCLINATION    = 42.9997
RA_OF_ASC_NODE = 100.2970
ARG_OF_PERICENTER = 273.1803
MEAN_ANOMALY   = 103.2688

EPHEMERIS_TYPE = 0
CLASSIFICATION_TYPE = U
NORAD_CAT_ID   = 67354
ELEMENT_SET_NO = 999
REV_AT_EPOCH   = 412
BSTAR          = -.18271203E-1
MEAN_MOTION_DOT = -.2031548E-1
MEAN_MOTION_DDOT = 0

CCSDS_OMM_VERS = 2.0
CREATION_DATE  = 
ORIGINATOR     = 

OBJECT_NAME    = STARLINK-36477
OBJECT_ID      = 2026-003X
CENTER_NAME    = EARTH
REF_FRAME      = TEME
TIME_SYSTEM    = UTC
MEAN_ELEMENT_THEORY = SGP/SGP4

EPOCH          = 2026-01-27T22:00:01.999584
MEAN_MOTION    = 15.70484290
ECCENTRICITY   = .00013935
INCLINATION    = 42.9998
RA_OF_ASC_NODE = 100.3069
ARG_OF_PERICENTER = 270.0542
MEAN_ANOMALY   = 102.5577

EPHEMERIS_TYPE = 0
CLASSIFICATION_TYPE = U
NORAD_CAT_ID   = 67355
ELEMENT_SET_NO = 999
REV_AT_EPOCH   = 411
BSTAR          = -.18400461E-1
MEAN_MOTION_DOT = -.2044876E-1
MEAN_MOTION_DDOT = 0

CCSDS_OMM_VERS = 2.0
CREATION_DATE  = 
ORIGINATOR     = 

OBJECT_NAME    = STARLINK-36429
OBJECT_ID      = 2026-003Y
CENTER_NAME    = EARTH
REF_FRAME      = TEME
TIME_SYSTEM    = UTC
MEAN_ELEMENT_THEORY = SGP/SGP4

EPOCH          = 2026-01-27T22:00:01.999584
MEAN_MOTION    = 15.70480071
ECCENTRICITY   = .00012714
INCLINATION    = 42.9997
RA_OF_ASC_NODE = 100.3020
ARG_OF_PERICENTER = 276.1081
MEAN_ANOMALY   = 98.4209

EPHEMERIS_TYPE = 0
CLASSIFICATION_TYPE = U
NORAD_CAT_ID   = 67356
ELEMENT_SET_NO = 999
REV_AT_EPOCH   = 411
BSTAR          = -.18338617E-1
MEAN_MOTION_DOT = -.2038422E-1
MEAN_MOTION_DDOT = 0

CCSDS_OMM_VERS = 2.0
CREATION_DATE  = 
ORIGINATOR     = 

OBJECT_NAME    = STARLINK-36456
OBJECT_ID      = 2026-003Z
CENTER_NAME    = EARTH
REF_FRAME      = TEME
TIME_SYSTEM    = UTC
MEAN_ELEMENT_THEORY = SGP/SGP4

EPOCH          = 2026-01-27T22:00:01.999584
MEAN_MOTION    = 15.70482333
ECCENTRICITY   = .00014332
INCLINATION    = 42.9997
RA_OF_ASC_NODE = 100.2916
ARG_OF_PERICENTER = 274.1774
MEAN_ANOMALY   = 104.1876

EPHEMERIS_TYPE = 0
CLASSIFICATION_TYPE = U
NORAD_CAT_ID   = 67357
ELEMENT_SET_NO = 999
REV_AT_EPOCH   = 412
BSTAR          = -.18382994E-1
MEAN_MOTION_DOT = -.2043058E-1
MEAN_MOTION_DDOT = 0

CCSDS_OMM_VERS = 2.0
CREATION_DATE  = 
ORIGINATOR     = 

OBJECT_NAME    = STARLINK-36466
OBJECT_ID      = 2026-003AA
CENTER_NAME    = EARTH
REF_FRAME      = TEME
TIME_SYSTEM    = UTC
MEAN_ELEMENT_THEORY = SGP/SGP4

EPOCH          = 2026-01-27T22:00:01.999584
MEAN_MOTION    = 15.70473926
ECCENTRICITY   = .00013578
INCLINATION    = 42.9999
RA_OF_ASC_NODE = 100.2870
ARG_OF_PERICENTER = 277.7861
MEAN_ANOMALY   = 102.4954

EPHEMERIS_TYPE = 0
CLASSIFICATION_TYPE = U
NORAD_CAT_ID   = 67358
ELEMENT_SET_NO = 999
REV_AT_EPOCH   = 412
BSTAR          = -.1824247E-1
MEAN_MOTION_DOT = -.2028644E-1
MEAN_MOTION_DDOT = 0

CCSDS_OMM_VERS = 2.0
CREATION_DATE  = 
ORIGINATOR     = 

OBJECT_NAME    = STARLINK-36499
OBJECT_ID      = 2026-003AB
CENTER_NAME    = EARTH
REF_FRAME      = TEME
TIME_SYSTEM    = UTC
MEAN_ELEMENT_THEORY = SGP/SGP4

EPOCH          = 2026-01-27T22:00:01.999584
MEAN_MOTION    = 15.70480941
ECCENTRICITY   = .00015068
INCLINATION    = 42.9998
RA_OF_ASC_NODE = 100.2820
ARG_OF_PERICENTER = 275.8562
MEAN_ANOMALY   = 106.3421

EPHEMERIS_TYPE = 0
CLASSIFICATION_TYPE = U
NORAD_CAT_ID   = 67359
ELEMENT_SET_NO = 999
REV_AT_EPOCH   = 412
BSTAR          = -.18350054E-1
MEAN_MOTION_DOT = -.2039803E-1
MEAN_MOTION_DDOT = 0

